0 NAVSTAR 66 (USA 232)
1 37753U 11036A   17355.80702084 -.00000020 +00000-0 +00000-0 0  9999
2 37753 055.5529 093.2951 0070465 034.3824 063.8341 02.00563350047115
0 NAVSTAR 71 (USA 256)
1 40105U 14045A   17355.88720522  .00000058  00000-0  00000+0 0  9991
2 40105  54.6036 212.3194 0008978 101.5555 258.6251  2.00558609 24800
0 NAVSTAR 73 (USA 260)
1 40534U 15013A   17355.89691244 -.00000056  00000-0  00000+0 0  9991
2 40534  54.8526 332.0818 0024521 351.0273   8.9288  2.00574434 20093
0 NAVSTAR 69 (USA 248)
1 39533U 14008A   17356.01099084 -.00000017  00000-0  00000+0 0  9997
2 39533  54.1921 276.1473 0030289 187.7328 172.2664  2.00572994 28078
0 NAVSTAR 68 (USA 242)
1 39166U 13023A   17356.01200518 -.00000063  00000-0  00000+0 0  9992
2 39166  55.9492  32.7342 0051210  17.8765 342.3657  2.00563666 33713
0 NAVSTAR 74 (USA 262)
1 40730U 15033A   17356.05521711 -.00000064  00000-0  00000+0 0  9990
2 40730  55.4817  32.3187 0032099 321.2880  38.5433  2.00556666 17850
0 NAVSTAR 75 (USA 265)
1 41019U 15062A   17356.10668960  .00000061  00000-0  00000+0 0  9993
2 41019  55.0403 152.8195 0031494 198.9483 160.9156  2.00564039 15674
0 NAVSTAR 65 (USA 213)
1 36585U 10022A   17356.12207707 -.00000052  00000-0  00000+0 0  9997
2 36585  55.9047 333.1690 0066907  44.5586 194.6725  2.00559675 55423
0 NAVSTAR 67 (USA 239)
1 38833U 12053A   17356.15831477 -.00000011  00000-0  00000+0 0  9996
2 38833  54.0420 270.8173 0064200  26.5200 333.8608  2.00564463 38188
0 NAVSTAR 76 (USA 266)
1 41328U 16007A   17356.19656986 +.00000059 +00000-0 +00000-0 0  9998
2 41328 054.8575 212.5482 0016346 213.4027 146.5728 02.00570029013739
0 NAVSTAR 72 (USA 258)
1 40294U 14068A   17356.25585267  .00000063  00000-0  00000+0 0  9998
2 40294  55.0332 153.0175 0010499  23.2080 336.8203  2.00572757 23037
0 NAVSTAR 66 (USA 232)
1 37753U 11036A   17356.27746751 -.00000018  00000-0  00000+0 0  9996
2 37753  55.5531  93.2764 0070475  34.3750  43.5272  2.00563343 47119
0 NAVSTAR 70 (USA 251)
1 39741U 14026A   17356.30005501 -.00000018 +00000-0 +00000-0 0  9993
2 39741 055.5384 092.7975 0011074 282.6307 077.2582 02.00579311026384
0 NAVSTAR 71 (USA 256)
1 40105U 14045A   17356.38579267 +.00000059 +00000-0 +00000-0 0  9997
2 40105 054.6036 212.2994 0008989 101.5640 258.6146 02.00558640023957
0 NAVSTAR 73 (USA 260)
1 40534U 15013A   17356.39546735 -.00000053 +00000-0 +00000-0 0  9999
2 40534 054.8523 332.0615 0024544 351.0584 008.8990 02.00574402019671
0 NAVSTAR 69 (USA 248)
1 39533U 14008A   17356.50954680 -.00000017 +00000-0 +00000-0 0  9994
2 39533 054.1918 276.1268 0030289 187.7007 172.2996 02.00573003027552
0 NAVSTAR 68 (USA 242)
1 39166U 13023A   17356.51058617 -.00000062 +00000-0 +00000-0 0  9998
2 39166 055.9494 032.7144 0051220 017.8811 342.3603 02.00563660033735
0 NAVSTAR 74 (USA 262)
1 40730U 15033A   17356.55381445 -.00000063 +00000-0 +00000-0 0  9993
2 40730 055.4819 032.2987 0032128 321.3149 038.5156 02.00556639017864
0 NAVSTAR 74 (USA 262)
1 40730U 15033A   17356.55381415 -.00000063 +00000-0 +00000-0 0  9990
2 40730 055.4819 032.2987 0032116 321.3195 038.5111 02.00556671017869
0 NAVSTAR 65 (USA 213)
1 36585U 10022A   17356.58447538 -.00000050 +00000-0 +00000-0 0  9994
2 36585 055.9045 333.1506 0066931 044.5580 168.5401 02.00559689055446
0 NAVSTAR 75 (USA 265)
1 41019U 15062A   17356.60526732 +.00000066 +00000-0 +00000-0 0  9994
2 41019 055.0404 152.7997 0031513 198.9671 160.8976 02.00564065015684
0 NAVSTAR 67 (USA 239)
1 38833U 12053A   17356.65689120 -.00000012 +00000-0 +00000-0 0  9999
2 38833 054.0417 270.7967 0064236 026.5422 333.8397 02.00564459037403
0 NAVSTAR 76 (USA 266)
1 41328U 16007A   17356.69512937  .00000060  00000-0  00000+0 0  9991
2 41328  54.8574 212.5284 0016363 213.4188 146.5546  2.00570000 13743
0 NAVSTAR 66 (USA 232)
1 37753U 11036A   17356.75306396 -.00000016 +00000-0 +00000-0 0  9995
2 37753 055.5534 093.2575 0070485 034.3672 026.9390 02.00563335047135
0 NAVSTAR 72 (USA 258)
1 40294U 14068A   17356.75440989 +.00000068 +00000-0 +00000-0 0  9990
2 40294 055.0333 152.9977 0010501 023.1852 336.8441 02.00572787023066
0 NAVSTAR 71 (USA 256)
1 40105U 14045A   17356.88438031  .00000061  00000-0  00000+0 0  9997
2 40105  54.6035 212.2793 0008998 101.5647 258.6122  2.00558670 24824
0 NAVSTAR 73 (USA 260)
1 40534U 15013A   17356.89402286 -.00000050  00000-0  00000+0 0  9992
2 40534  54.8521 332.0413 0024577 351.1030   8.8559  2.00574351 20113
0 NAVSTAR 69 (USA 248)
1 39533U 14008A   17357.00810193 -.00000017  00000-0  00000+0 0  9999
2 39533  54.1914 276.1063 0030293 187.6819 172.3192  2.00573015 28098
0 NAVSTAR 68 (USA 242)
1 39166U 13023A   17357.00916733 -.00000060  00000-0  00000+0 0  9992
2 39166  55.9496  32.6946 0051264  17.8613 342.3792  2.00563634 33734
0 NAVSTAR 74 (USA 262)
1 40730U 15033A   17357.05241324 -.00000061  00000-0  00000+0 0  9997
2 40730  55.4821  32.2786 0032167 321.3620  38.4676  2.00556540 17879
0 NAVSTAR 75 (USA 265)
1 41019U 15062A   17357.10384631  .00000071  00000-0  00000+0 0  9995
2 41019  55.0405 152.7799 0031520 198.9770 160.8888  2.00564059 15699
0 NAVSTAR 67 (USA 239)
1 38833U 12053A   17357.15546707 -.00000012  00000-0  00000+0 0  9997
2 38833  54.0413 270.7761 0064270  26.5624 333.8200  2.00564455 38201
0 NAVSTAR 72 (USA 258)
1 40294U 14068A   17357.25296798 +.00000073 +00000-0 +00000-0 0  9999
2 40294 055.0334 152.9778 0010506 023.1932 336.8374 02.00572820023074
0 NAVSTAR 72 (USA 258)
1 40294U 14068A   17357.25296792  .00000073  00000-0  00000+0 0  9992
2 40294  55.0334 152.9778 0010509  23.2017 336.8290  2.00572813 23059
0 NAVSTAR 70 (USA 251)
1 39741U 14026A   17357.29714102 -.00000016 +00000-0 +00000-0 0  9994
2 39741 055.5389 092.7578 0011130 282.6868 077.2044 02.00579203026409
0 NAVSTAR 70 (USA 251)
1 39741U 14026A   17357.29714004 -.00000016  00000-0  00000+0 0  9994
2 39741  55.5389  92.7578 0011108 282.6650  77.2265  2.00579282 26382
0 NAVSTAR 71 (USA 256)
1 40105U 14045A   17357.38296814 +.00000063 +00000-0 +00000-0 0  9997
2 40105 054.6035 212.2593 0009008 101.5552 258.6202 02.00558687023972
0 NAVSTAR 71 (USA 256)
1 40105U 14045A   17357.38296815 +.00000063 +00000-0 +00000-0 0  9998
2 40105 054.6035 212.2593 0009006 101.5766 258.5987 02.00558696023976
0 NAVSTAR 73 (USA 260)
1 40534U 15013A   17357.39257741 -.00000048 +00000-0 +00000-0 0  9990
2 40534 054.8518 332.0209 0024596 351.1345 008.8258 02.00574342019699
0 NAVSTAR 65 (USA 213)
1 36585U 10022A   17357.50630892 -.00000045  00000-0  00000+0 0  9997
2 36585  55.9040 333.1140 0066987  44.5550 114.1377  2.00559714 55452
0 NAVSTAR 69 (USA 248)
1 39533U 14008A   17357.50665681 -.00000018 +00000-0 +00000-0 0  9996
2 39533 054.1911 276.0858 0030294 187.6448 172.3567 02.00573022027571
0 NAVSTAR 68 (USA 242)
1 39166U 13023A   17357.50774857 -.00000059 +00000-0 +00000-0 0  9995
2 39166 055.9498 032.6748 0051270 017.8693 342.3706 02.00563632033756
0 NAVSTAR 68 (USA 242)
1 39166U 13023A   17357.50774851 -.00000059 +00000-0 +00000-0 0  9999
2 39166 055.9498 032.6748 0051289 017.8548 342.3850 02.00563619033750
0 NAVSTAR 66 (USA 232)
1 37753U 11036A   17357.52864036 -.00000015  00000-0  00000+0 0  9999
2 37753  55.5538  93.2265 0070501  34.3509 226.9596  2.00563319 47135
0 NAVSTAR 74 (USA 262)
1 40730U 15033A   17357.55101092 -.00000060 +00000-0 +00000-0 0  9999
2 40730 055.4823 032.2586 0032167 321.3717 038.4573 02.00556547017880
0 NAVSTAR 74 (USA 262)
1 40730U 15033A   17357.55100975 -.00000060 +00000-0 +00000-0 0  9998
2 40730 055.4823 032.2586 0032176 321.3669 038.4620 02.00556565017889
0 NAVSTAR 75 (USA 265)
1 41019U 15062A   17357.60242636 +.00000076 +00000-0 +00000-0 0  9994
2 41019 055.0406 152.7601 0031536 198.9875 160.8796 02.00564028015701
0 NAVSTAR 66 (USA 232)
1 37753U 11036A   17357.60610848 -.00000015 +00000-0 +00000-0 0  9999
2 37753 055.5539 093.2235 0070504 034.3506 282.8957 02.00563318047145
0 NAVSTAR 65 (USA 213)
1 36585U 10022A   17357.60976334 -.00000045 +00000-0 +00000-0 0  9993
2 36585 055.9040 333.1099 0066988 044.5552 188.8351 02.00559716055461
0 NAVSTAR 76 (USA 266)
1 41328U 16007A   17357.69224862  .00000065  00000-0  00000+0 0  9994
2 41328  54.8573 212.4886 0016382 213.3515 146.6188  2.00569974 13766
0 NAVSTAR 72 (USA 258)
1 40294U 14068A   17357.75152515 +.00000077 +00000-0 +00000-0 0  9996
2 40294 055.0335 152.9580 0010511 023.1672 336.8649 02.00572848023089
0 NAVSTAR 66 (USA 232)
1 37753U 11036A   17357.83036918 -.00000015 +00000-0 +00000-0 0  9994
2 37753 055.5540 093.2145 0070508 034.3477 084.8260 02.00563315047153
0 NAVSTAR 73 (USA 260)
1 40534U 15013A   17357.89113336 -.00000046  00000-0  00000+0 0  9993
2 40534  54.8516 332.0007 0024632 351.1834   8.7782  2.00574274 20133
0 NAVSTAR 69 (USA 248)
1 39533U 14008A   17358.00521084 -.00000019  00000-0  00000+0 0  9990
2 39533  54.1907 276.0653 0030297 187.6197 172.3818  2.00573034 28116
0 NAVSTAR 75 (USA 265)
1 41019U 15062A   17358.10100530  .00000080  00000-0  00000+0 0  9990
2 41019  55.0407 152.7403 0031569 199.0064 160.8620  2.00564033 15713
0 NAVSTAR 67 (USA 239)
1 38833U 12053A   17358.15261729 -.00000014  00000-0  00000+0 0  9998
2 38833  54.0407 270.7349 0064322  26.6010 333.7815  2.00564447 38228
0 NAVSTAR 76 (USA 266)
1 41328U 16007A   17358.19080967 +.00000069 +00000-0 +00000-0 0  9991
2 41328 054.8573 212.4687 0016392 213.3433 146.6257 02.00569938013773
0 NAVSTAR 72 (USA 258)
1 40294U 14068A   17358.25008324  .00000081  00000-0  00000+0 0  9994
2 40294  55.0336 152.9382 0010516  23.1549 336.8787  2.00572867 23071
0 NAVSTAR 70 (USA 251)
1 39741U 14026A   17358.29422315 -.00000016  00000-0  00000+0 0  9996
2 39741  55.5394  92.7181 0011141 282.6882  77.2042  2.00579213 26402
0 NAVSTAR 71 (USA 256)
1 40105U 14045A   17358.38014509 +.00000070 +00000-0 +00000-0 0  9995
2 40105 054.6034 212.2192 0009030 101.5739 258.5993 02.00558752023999
